{"type": "FeatureCollection", "features": [ {"type": "Feature", "properties": {"norad_id": 40315, "name": "COSMOS 2501 (702K)", "group": "gnss", "lat": -25.99095089416265, "lon": 30.564685068876166, "alt_km": 19082.45103714802, "timestamp": "2025-12-20T18:51:31.957325+00:00", "meta": {"OBJECT_NAME": "COSMOS 2501 (702K)", "OBJECT_ID": "2014-075A", "EPOCH": "2025-12-19T02:31:27.452640", "MEAN_MOTION": 2.13101513, "ECCENTRICITY": 0.0020099, "INCLINATION": 63.6146, "RA_OF_ASC_NODE": 196.6046, "ARG_OF_PERICENTER": 204.1838, "MEAN_ANOMALY": 155.7988, "EPHEMERIS_TYPE": 0, "CLASSIFICATION_TYPE": "U", "NORAD_CAT_ID": 40315, "ELEMENT_SET_NO": 999, "REV_AT_EPOCH": 8601, "BSTAR": 0, "MEAN_MOTION_DOT": 1.06e-06, "MEAN_MOTION_DDOT": 0}, "tle": {"line1": "1 40315U 14075A   25353.10517885  .00000106  00000+0  00000+0 0  9998", "line2": "2 40315  63.6146 196.6046 0020099 204.1838 155.7988  2.13101513 86014"}}, "geometry": {"type": "Point", "coordinates": [30.564685068876166, -25.99095089416265]}}, {"type": "Feature", "properties": {"norad_id": 40534, "name": "GPS BIIF-9  (PRN 26)", "group": "gnss", "lat": 15.72883368033244, "lon": 19.398958398698092, "alt_km": 20327.243980459923, "timestamp": "2025-12-20T18:51:31.957351+00:00", "meta": {"OBJECT_NAME": "GPS BIIF-9  (PRN 26)", "OBJECT_ID": "2015-013A", "EPOCH": "2025-12-19T01:41:54.527136", "MEAN_MOTION": 2.00562262, "ECCENTRICITY": 0.0107309, "INCLINATION": 53.1969, "RA_OF_ASC_NODE": 211.6279, "ARG_OF_PERICENTER": 38.6346, "MEAN_ANOMALY": 322.2232, "EPHEMERIS_TYPE": 0, "CLASSIFICATION_TYPE": "U", "NORAD_CAT_ID": 40534, "ELEMENT_SET_NO": 999, "REV_AT_EPOCH": 7821, "BSTAR": 0, "MEAN_MOTION_DOT": 8.5e-07, "MEAN_MOTION_DDOT": 0}, "tle": {"line1": "1 40534U 15013A   25353.07076999  .00000085  00000+0  00000+0 0  9992", "line2": "2 40534  53.1969 211.6279 0107309  38.6346 322.2232  2.00562262 78218"}}, "geometry": {"type": "Point", "coordinates": [19.398958398698092, 15.72883368033244]}}, {"type": "Feature", "properties": {"norad_id": 40544, "name": "GSAT0203 (GALILEO 7)", "group": "gnss", "lat": -49.17222546433348, "lon": -62.720619686248284, "alt_km": 23209.623529393353, "timestamp": "2025-12-20T18:51:31.957366+00:00", "meta": {"OBJECT_NAME": "GSAT0203 (GALILEO 7)", "OBJECT_ID": "2015-017A", "EPOCH": "2025-12-17T08:55:11.074944", "MEAN_MOTION": 1.7047611, "ECCENTRICITY": 0.00064774, "INCLINATION": 56.8452, "RA_OF_ASC_NODE": 346.5536, "ARG_OF_PERICENTER": 273.4606, "MEAN_ANOMALY": 86.4809, "EPHEMERIS_TYPE": 0, "CLASSIFICATION_TYPE": "U", "NORAD_CAT_ID": 40544, "ELEMENT_SET_NO": 999, "REV_AT_EPOCH": 6610, "BSTAR": 0, "MEAN_MOTION_DOT": -7.9e-07, "MEAN_MOTION_DDOT": 0}, "tle": {"line1": "1 40544U 15017A   25351.37165596 -.00000079  00000+0  00000+0 0  9994", "line2": "2 40544  56.8452 346.5536 0006477 273.4606  86.4809  1.70476110 66108"}}, "geometry": {"type": "Point", "coordinates": [-62.720619686248284, -49.17222546433348]}}, {"type": "Feature", "properties": {"norad_id": 40545, "name": "GSAT0204 (GALILEO 8)", "group": "gnss", "lat": 33.7229756207581, "lon": 140.60313715254335, "alt_km": 23229.156066258398, "timestamp": "2025-12-20T18:51:31.957377+00:00", "meta": {"OBJECT_NAME": "GSAT0204 (GALILEO 8)", "OBJECT_ID": "2015-017B", "EPOCH": "2025-12-20T13:26:28.826304", "MEAN_MOTION": 1.70475697, "ECCENTRICITY": 0.00061333, "INCLINATION": 56.8522, "RA_OF_ASC_NODE": 346.4847, "ARG_OF_PERICENTER": 266.5447, "MEAN_ANOMALY": 93.3948, "EPHEMERIS_TYPE": 0, "CLASSIFICATION_TYPE": "U", "NORAD_CAT_ID": 40545, "ELEMENT_SET_NO": 999, "REV_AT_EPOCH": 2920, "BSTAR": 0, "MEAN_MOTION_DOT": -7e-07, "MEAN_MOTION_DDOT": 0}, "tle": {"line1": "1 40545U 15017B   25354.56005586 -.00000070  00000+0  00000+0 0  9992", "line2": "2 40545  56.8522 346.4847 0006133 266.5447  93.3948  1.70475697 29206"}}, "geometry": {"type": "Point", "coordinates": [140.60313715254335, 33.7229756207581]}}, {"type": "Feature", "properties": {"norad_id": 40549, "name": "BEIDOU-3S IGSO-1S (C31)", "group": "gnss", "lat": 8.141486830709562, "lon": 110.57550527008075, "alt_km": 35640.773519688104, "timestamp": "2025-12-20T18:51:31.957388+00:00", "meta": {"OBJECT_NAME": "BEIDOU-3S IGSO-1S (C31)", "OBJECT_ID": "2015-019A", "EPOCH": "2025-12-18T19:55:38.829792", "MEAN_MOTION": 1.00292047, "ECCENTRICITY": 0.0036331, "INCLINATION": 49.5404, "RA_OF_ASC_NODE": 297.6395, "ARG_OF_PERICENTER": 194.0028, "MEAN_ANOMALY": 349.3621, "EPHEMERIS_TYPE": 0, "CLASSIFICATION_TYPE": "U", "NORAD_CAT_ID": 40549, "ELEMENT_SET_NO": 999, "REV_AT_EPOCH": 3926, "BSTAR": 0, "MEAN_MOTION_DOT": -1.83e-06, "MEAN_MOTION_DDOT": 0}, "tle": {"line1": "1 40549U 15019A   25352.83031053 -.00000183  00000+0  00000+0 0  9999", "line2": "2 40549  49.5404 297.6395 0036331 194.0028 349.3621  1.00292047 39264"}}, "geometry": {"type": "Point", "coordinates": [110.57550527008075, 8.141486830709562]}}, {"type": "Feature", "properties": {"norad_id": 40730, "name": "GPS BIIF-10 (PRN 08)", "group": "gnss", "lat": 33.44112644484752, "lon": -57.063774983594705, "alt_km": 19893.154926392574, "timestamp": "2025-12-20T18:51:31.957400+00:00", "meta": {"OBJECT_NAME": "GPS BIIF-10 (PRN 08)", "OBJECT_ID": "2015-033A", "EPOCH": "2025-12-20T05:30:00.269856", "MEAN_MOTION": 2.0056532, "ECCENTRICITY": 0.01114012, "INCLINATION": 54.1241, "RA_OF_ASC_NODE": 274.4647, "ARG_OF_PERICENTER": 26.9904, "MEAN_ANOMALY": 333.6219, "EPHEMERIS_TYPE": 0, "CLASSIFICATION_TYPE": "U", "NORAD_CAT_ID": 40730, "ELEMENT_SET_NO": 999, "REV_AT_EPOCH": 7640, "BSTAR": 0, "MEAN_MOTION_DOT": -1.9e-07, "MEAN_MOTION_DDOT": 0}, "tle": {"line1": "1 40730U 15033A   25354.22916979 -.00000019  00000+0  00000+0 0  9999", "line2": "2 40730  54.1241 274.4647 0111401  26.9904 333.6219  2.00565320 76402"}}, "geometry": {"type": "Point", "coordinates": [-57.063774983594705, 33.44112644484752]}}, {"type": "Feature", "properties": {"norad_id": 40748, "name": "BEIDOU-3S M2S (C58)", "group": "gnss", "lat": 0.9599537309811774, "lon": 127.49182977374508, "alt_km": 21528.55717480622, "timestamp": "2025-12-20T18:51:31.957411+00:00", "meta": {"OBJECT_NAME": "BEIDOU-3S M2S (C58)", "OBJECT_ID": "2015-037A", "EPOCH": "2025-12-19T23:33:43.414272", "MEAN_MOTION": 1.86229501, "ECCENTRICITY": 0.0012159, "INCLINATION": 55.0323, "RA_OF_ASC_NODE": 308.2143, "ARG_OF_PERICENTER": 269.0656, "MEAN_ANOMALY": 90.7858, "EPHEMERIS_TYPE": 0, "CLASSIFICATION_TYPE": "U", "NORAD_CAT_ID": 40748, "ELEMENT_SET_NO": 999, "REV_AT_EPOCH": 7078, "BSTAR": 0, "MEAN_MOTION_DOT": -7.2e-07, "MEAN_MOTION_DDOT": 0}, "tle": {"line1": "1 40748U 15037A   25353.98175248 -.00000072  00000+0  00000+0 0  9999", "line2": "2 40748  55.0323 308.2143 0012159 269.0656  90.7858  1.86229501 70789"}}, "geometry": {"type": "Point", "coordinates": [127.49182977374508, 0.9599537309811774]}}, {"type": "Feature", "properties": {"norad_id": 40749, "name": "BEIDOU-3S M1S (C57)", "group": "gnss", "lat": 20.624688696547246, "lon": -36.588286271731626, "alt_km": 21514.08107793474, "timestamp": "2025-12-20T18:51:31.957422+00:00", "meta": {"OBJECT_NAME": "BEIDOU-3S M1S (C57)", "OBJECT_ID": "2015-037B", "EPOCH": "2025-12-19T03:17:32.841888", "MEAN_MOTION": 1.86254044, "ECCENTRICITY": 0.0003631, "INCLINATION": 55.0296, "RA_OF_ASC_NODE": 308.2337, "ARG_OF_PERICENTER": 1.0538, "MEAN_ANOMALY": 358.9355, "EPHEMERIS_TYPE": 0, "CLASSIFICATION_TYPE": "U", "NORAD_CAT_ID": 40749, "ELEMENT_SET_NO": 999, "REV_AT_EPOCH": 7077, "BSTAR": 0, "MEAN_MOTION_DOT": -7.8e-07, "MEAN_MOTION_DDOT": 0}, "tle": {"line1": "1 40749U 15037B   25353.13718567 -.00000078  00000+0  00000+0 0  9990", "line2": "2 40749  55.0296 308.2337 0003631   1.0538 358.9355  1.86254044 70772"}}, "geometry": {"type": "Point", "coordinates": [-36.588286271731626, 20.624688696547246]}}, {"type": "Feature", "properties": {"norad_id": 40889, "name": "GSAT0205 (GALILEO 9)", "group": "gnss", "lat": -53.631864685826734, "lon": 154.5713073337279, "alt_km": 23236.69669141862, "timestamp": "2025-12-20T18:51:31.957433+00:00", "meta": {"OBJECT_NAME": "GSAT0205 (GALILEO 9)", "OBJECT_ID": "2015-045A", "EPOCH": "2025-12-17T23:34:28.865856", "MEAN_MOTION": 1.70473246, "ECCENTRICITY": 0.00059886, "INCLINATION": 55.0015, "RA_OF_ASC_NODE": 226.6133, "ARG_OF_PERICENTER": 39.6119, "MEAN_ANOMALY": 320.5359, "EPHEMERIS_TYPE": 0, "CLASSIFICATION_TYPE": "U", "NORAD_CAT_ID": 40889, "ELEMENT_SET_NO": 999, "REV_AT_EPOCH": 6392, "BSTAR": 0, "MEAN_MOTION_DOT": 5.9e-07, "MEAN_MOTION_DDOT": 0}, "tle": {"line1": "1 40889U 15045A   25351.98227854  .00000059  00000+0  00000+0 0  9997", "line2": "2 40889  55.0015 226.6133 0005988  39.6119 320.5359  1.70473246 63920"}}, "geometry": {"type": "Point", "coordinates": [154.5713073337279, -53.631864685826734]}}, {"type": "Feature", "properties": {"norad_id": 40890, "name": "GSAT0206 (GALILEO 10)", "group": "gnss", "lat": 27.82110350774004, "lon": 24.85779320012097, "alt_km": 23221.553852468358, "timestamp": "2025-12-20T18:51:31.957444+00:00", "meta": {"OBJECT_NAME": "GSAT0206 (GALILEO 10)", "OBJECT_ID": "2015-045B", "EPOCH": "2025-12-18T18:56:55.411008", "MEAN_MOTION": 1.70473154, "ECCENTRICITY": 0.00042207, "INCLINATION": 55.0004, "RA_OF_ASC_NODE": 226.586, "ARG_OF_PERICENTER": 42.9195, "MEAN_ANOMALY": 317.2206, "EPHEMERIS_TYPE": 0, "CLASSIFICATION_TYPE": "U", "NORAD_CAT_ID": 40890, "ELEMENT_SET_NO": 999, "REV_AT_EPOCH": 6396, "BSTAR": 0, "MEAN_MOTION_DOT": 6.4e-07, "MEAN_MOTION_DDOT": 0}, "tle": {"line1": "1 40890U 15045B   25352.78953022  .00000064  00000+0  00000+0 0  9997", "line2": "2 40890  55.0004 226.5860 0004220  42.9195 317.2206  1.70473154 63961"}}, "geometry": {"type": "Point", "coordinates": [24.85779320012097, 27.82110350774004]}}]}